{
  "status": "success",
  "hasErrors": false,
  "message": "",
  "length": 155,
  "payload": [
    {
      "_index": "tle",
      "_type": "_doc",
      "_id": "52lrtnYBAz3ao6c9Us3E",
      "_score": 9.150519,
      "_source": {
        "right_ascension": "132.7941",
        "anomaly": "120.6892",
        "calc_anomaly": 120.6892,
        "satellite_number": 10976,
        "calc_mean_motion": 2.22309516,
        "ephemeris": "0",
        "set_number": "000",
        "calc_ballistic_coefficient": -0.00000132,
        "epoch": "18002.44490358",
        "international_designator": "78068B",
        "calc_inclination": 21.4852,
        "perigee": "022.0902",
        "revolution_number": "3175",
        "line_number": 158577,
        "calc_perigee": 22.0902,
        "drag": "+16791-3",
        "text": "1 10976U 78068B   18002.44490358 -.00000132  00000-0  16791-3 0    07\n2 10976  21.4852 132.7941 7160392  22.0902 120.6892  2.22309516 31751",
        "calc_drag": 0.00016791,
        "timestamp": "2018-01-02 10:40:39",
        "inclination": "021.4852",
        "eccentricity": "7160392",
        "classification": "U",
        "calc_right_ascension": 132.7941,
        "calc_mean_motion_2": 0,
        "ballistic_coefficient": "-.00000132",
        "filename": "tle2018.txt",
        "calc_eccentricity": 0.7160392,
        "mean_motion": "02.22309516",
        "mean_motion_2": "+00000-0"
      }
    }
  ]
}